ONEWEB-0709             
1 55172U 23004AJ  25082.82451466  .00000465  00000+0  12758-2 0  9991
2 55172  87.8808 110.8796 0001486  65.6444 294.4839 13.11417293106841
ONEWEB-0710             
1 55173U 23004AK  25082.75043261  .00000150  00000+0  35428-3 0  9995
2 55173  87.9001  95.6081 0001894  95.3299 264.8048 13.17650120108261
ONEWEB-0711             
1 55174U 23004AL  25082.79567971 -.00000537  00000+0 -15509-2 0  9997
2 55174  87.8804 110.8532 0001865 119.0438 241.0877 13.11417530106805
ONEWEB-0713             
1 55175U 23004AM  25082.81433938  .00000049  00000+0  10336-3 0  9996
2 55175  87.8806 110.8574 0001883 103.1203 257.0135 13.11417878106795
ONEWEB-0715             
1 55176U 23004AN  25082.80922821 -.00000167  00000+0 -50630-3 0  9994
2 55176  87.8807 110.8587 0001612  89.8714 270.2599 13.11416842106834
ONEWEB-0716             
1 55177U 23004AP  25082.74368611  .00000069  00000+0  14517-3 0  9992
2 55177  87.9003  95.6072 0002202  90.0328 270.1056 13.17649888108264
ONEWEB-0717             
1 55178U 23004AQ  25082.72679587  .00000179  00000+0  42740-3 0  9999
2 55178  87.9001  95.5707 0001515 114.2124 245.9166 13.17650940108315
ONEWEB-0719             
1 55179U 23004AR  25082.73691862  .00000038  00000+0  65432-4 0  9999
2 55179  87.9000  95.5532 0002229  93.1062 267.0325 13.17651993108265
ONEWEB-0530             
1 55796U 23029A   25082.79208806 -.00000042  00000+0 -13503-3 0  9997
2 55796  87.9339   4.1251 0001778  97.5157 262.6178 13.20770546101697
ONEWEB-0534             
1 55797U 23029B   25082.85521252  .00000093  00000+0  19752-3 0  9994
2 55797  87.9337   4.1201 0002003  79.1778 280.9581 13.20769544101707
ONEWEB-0556             
1 55798U 23029C   25082.86153075  .00000156  00000+0  35055-3 0  9994
2 55798  87.9338   4.1112 0002490  93.9182 266.2236 13.20773900101708
ONEWEB-0562             
1 55799U 23029D   25082.77314817 -.00000029  00000+0 -10285-3 0  9997
2 55799  87.9338   4.1210 0002127 106.7252 253.4115 13.20774400101694
ONEWEB-0563             
1 55800U 23029E   25082.84258759 -.00000065  00000+0 -19138-3 0  9996
2 55800  87.9338   4.1219 0002179  75.8866 284.2509 13.20775030101699
ONEWEB-0564             
1 55801U 23029F   25082.83626460 -.00000073  00000+0 -21225-3 0  9993
2 55801  87.9338   4.1115 0001836  91.5453 268.5890 13.20768384101705
ONEWEB-0638             
1 55802U 23029G   25082.85190227 -.00000105  00000+0 -31845-3 0  9998
2 55802  87.9081  19.3112 0002305  89.4772 270.6621 13.14501246100236
ONEWEB-0639             
1 55803U 23029H   25082.90761638  .00000042  00000+0  73727-4 0  9999
2 55803  87.9228  34.4750 0002801  61.1542 298.9872 13.19727497 99511
ONEWEB-0640             
1 55804U 23029J   25082.86142815 -.00000138  00000+0 -40713-3 0  9991
2 55804  87.9082  19.2996 0002638  83.2821 276.8609 13.14503474100255
ONEWEB-0641             
1 55805U 23029K   25082.90288005  .00000049  00000+0  90981-4 0  9991
2 55805  87.9224  34.4502 0002039  74.3057 285.8300 13.19727484 99522
ONEWEB-0642             
1 55806U 23029L   25082.89814423 -.00000018  00000+0 -76584-4 0  9990
2 55806  87.9230  34.4851 0002389  57.1829 302.9533 13.19726789 99516
ONEWEB-0643             
1 55807U 23029M   25082.83128006 -.00000021  00000+0 -92285-4 0  9990
2 55807  87.9085  19.2864 0001918  54.0162 306.1145 13.14501415100221
ONEWEB-0644             
1 55808U 23029N   25082.89340306  .00000080  00000+0  16710-3 0  9997
2 55808  87.9233  34.4879 0002124  65.3886 294.7468 13.19728366 99510
ONEWEB-0645             
1 55809U 23029P   25082.88945246  .00000065  00000+0  12993-3 0  9993
2 55809  87.9230  34.4862 0002211  79.5779 280.5602 13.19725971 99517
ONEWEB-0646             
1 55810U 23029Q   25082.91946977  .00000000  00000+0 -31392-4 0  9996
2 55810  87.9230  34.4748 0001940  71.8060 288.3284 13.19725727 99508
ONEWEB-0648             
1 55811U 23029R   25082.87570606  .00000298  00000+0  76907-3 0  9992
2 55811  87.9084  19.2522 0002708  64.3491 295.7919 13.14503491100232
ONEWEB-0649             
1 55812U 23029S   25082.88234637  .00000033  00000+0  50634-4 0  9992
2 55812  87.9227  34.4729 0002319  70.8973 289.2411 13.19727507 99531
ONEWEB-0650             
1 55813U 23029T   25082.87760887 -.00000050  00000+0 -15620-3 0  9999
2 55813  87.9230  34.4810 0002031  74.3989 285.7367 13.19727205 99507
ONEWEB-0652             
1 55814U 23029U   25082.85664593 -.00000385  00000+0 -10725-2 0  9996
2 55814  87.9084  19.2664 0001761  82.3439 277.7891 13.14501906100207
ONEWEB-0653             
1 55815U 23029V   25082.84081213 -.00000225  00000+0 -64020-3 0  9999
2 55815  87.9088  19.2561 0001991  84.4924 275.6432 13.14503383100237
ONEWEB-0654             
1 55816U 23029W   25082.83605153 -.00000292  00000+0 -82214-3 0  9993
2 55816  87.9085  19.2598 0001771  92.7882 267.3450 13.14502017100259
ONEWEB-0656             
1 55817U 23029X   25082.82995414 -.00000036  00000+0 -12157-3 0  9990
2 55817  87.9336   4.0540 0001421  93.6464 266.4832 13.20775183101704
ONEWEB-0657             
1 55818U 23029Y   25082.87287593  .00000048  00000+0  86863-4 0  9995
2 55818  87.9230  34.4873 0001088  79.7868 280.3387 13.19726852100195
ONEWEB-0658             
1 55819U 23029Z   25082.86813344 -.00000018  00000+0 -76909-4 0  9993
2 55819  87.9227  34.4221 0002091  66.0970 294.0382 13.19727113100207
ONEWEB-0660             
1 55820U 23029AA  25082.88996890  .00000375  00000+0  97734-3 0  9997
2 55820  87.9086  19.2215 0002276  77.1523 282.9861 13.14501288100248
ONEWEB-0661             
1 55821U 23029AB  25082.84873136 -.00000235  00000+0 -66777-3 0  9991
2 55821  87.9085  19.2993 0002284  80.4404 279.6983 13.14502747100222
ONEWEB-0662             
1 55822U 23029AC  25082.88361545  .00000442  00000+0  11577-2 0  9997
2 55822  87.9084  19.2996 0002287  75.8835 284.2549 13.14501152100278
ONEWEB-0663             
1 55823U 23029AD  25082.73940128  .00000119  00000+0  26052-3 0  9998
2 55823  87.9339   4.1287 0002279  73.8321 286.3063 13.20828608101682
ONEWEB-0664             
1 55824U 23029AE  25082.81734284  .00000000  00000+0 -32140-4 0  9998
2 55824  87.9337   4.1320 0002136  89.8406 270.2972 13.20773907101695
ONEWEB-0665             
1 55825U 23029AF  25082.84556398 -.00000390  00000+0 -10873-2 0  9990
2 55825  87.9084  19.2744 0002136  74.6481 285.4884 13.14502403100241
ONEWEB-0666             
1 55826U 23029AG  25082.81103037  .00000013  00000+0 -31891-6 0  9994
2 55826  87.9339   4.1225 0001513  88.4489 271.6818 13.20773782101704
ONEWEB-0667             
1 55827U 23029AH  25082.80471868  .00000061  00000+0  11930-3 0  9995
2 55827  87.9338   4.0562 0002098  79.5773 280.5596 13.20774133101694
ONEWEB-0669             
1 55828U 23029AJ  25082.79997716  .00000110  00000+0  23872-3 0  9992
2 55828  87.9337   4.0932 0001793 103.0786 257.0548 13.20775111101696
ONEWEB-0670             
1 55829U 23029AK  25082.82337025 -.00000030  00000+0 -11482-3 0  9995
2 55829  87.9090  19.2940 0002299  83.6879 276.4512 13.14503915100260
ONEWEB-0671             
1 55830U 23029AL  25082.86339194  .00000031  00000+0  44930-4 0  9994
2 55830  87.9229  34.4836 0002216  82.8360 277.3025 13.19727521 99503
ONEWEB-0672             
1 55831U 23029AM  25082.79524576 -.00000003  00000+0 -39151-4 0  9997
2 55831  87.9338   4.0791 0001509  82.9970 277.1334 13.20773674101697
ONEWEB-0673             
1 55832U 23029AN  25082.91551777 -.00000010  00000+0 -57920-4 0  9997
2 55832  87.9229  34.4376 0001986  72.2753 287.8596 13.19727264 99510
ONEWEB-0674             
1 55833U 23029AP  25082.86777366  .00000007  00000+0 -14711-4 0  9992
2 55833  87.9081  19.2766 0002371  86.3947 273.7454 13.14504630100257
ONEWEB-0675             
1 55834U 23029AQ  25082.93131369  .00000015  00000+0  41514-5 0  9998
2 55834  87.9229  34.4790 0001619  74.5429 285.5883 13.19726791 99530
ONEWEB-0720             
1 55835U 23029AR  25082.92340769  .00000015  00000+0  62817-5 0  9993
2 55835  87.9232  34.4779 0002238  71.8632 288.2744 13.19728130 99452
ONEWEB-0537             
1 56046U 23043A   25082.68460512  .00000008  00000+0 -13575-4 0  9995
2 56046  87.9069 318.5622 0001470  81.0988 279.0310 13.16592215 99684
ONEWEB-0538             
1 56047U 23043B   25082.90626726  .00000020  00000+0  17745-4 0  9998
2 56047  87.9075 318.5402 0001620  70.7440 289.3866 13.16592040100637
ONEWEB-0546             
1 56048U 23043C   25082.89360050 -.00000038  00000+0 -13353-3 0  9993
2 56048  87.9076 318.5113 0001101 100.4555 259.6700 13.16592296 99716
ONEWEB-0547             
1 56049U 23043D   25082.93151242 -.00000385  00000+0 -96326-3 0  9996
2 56049  87.9325 333.7572 0001710  71.1145 289.0175 13.21828251 98741
ONEWEB-0548             
1 56050U 23043E   25082.91894193  .00000065  00000+0  13615-3 0  9998
2 56050  87.9073 318.5472 0002138  90.9047 269.2328 13.16592806100627
ONEWEB-0549             
1 56051U 23043F   25082.92285791 -.00000018  00000+0 -74888-4 0  9998
2 56051  87.9326 333.7607 0001837  66.8712 293.2615 13.21828841 99657
ONEWEB-0550             
1 56052U 23043G   25082.68314447  .00000022  00000+0  20877-4 0  9995
2 56052  87.9322 333.8058 0001897  81.8452 278.2897 13.21828049 98710
ONEWEB-0551             
1 56053U 23043H   25082.97190398  .00000171  00000+0  42047-3 0  9992
2 56053  87.9134 348.9326 0001944  71.3627 288.7714 13.15546878 97205
ONEWEB-0552             
1 56054U 23043J   25082.75252697 -.00000047  00000+0 -14422-3 0  9990
2 56054  87.9323 333.8013 0002077  76.0258 284.1107 13.21828630 98722
ONEWEB-0553             
1 56055U 23043K   25082.89995837  .00000624  00000+0  15991-2 0  9996
2 56055  87.9078 318.5395 0001353  90.9462 269.1824 13.16591253100636
ONEWEB-0554             
1 56056U 23043L   25082.88727112  .00000105  00000+0  24091-3 0  9991
2 56056  87.9079 318.5696 0002223  89.7131 270.4255 13.16592237 99709
